{"type": "FeatureCollection", "features": [ {"type": "Feature", "properties": {"norad_id": 40118, "name": "GAOFEN-2", "group": "resource", "lat": -12.635996988303896, "lon": -126.2562172954789, "alt_km": 633.5556975663476, "timestamp": "2025-12-22T08:58:20.000418+00:00", "meta": {"OBJECT_NAME": "GAOFEN-2", "OBJECT_ID": "2014-049A", "EPOCH": "2025-12-22T04:51:42.801408", "MEAN_MOTION": 14.80624285, "ECCENTRICITY": 0.0008763, "INCLINATION": 98.0376, "RA_OF_ASC_NODE": 55.3876, "ARG_OF_PERICENTER": 87.0991, "MEAN_ANOMALY": 273.1224, "EPHEMERIS_TYPE": 0, "CLASSIFICATION_TYPE": "U", "NORAD_CAT_ID": 40118, "ELEMENT_SET_NO": 999, "REV_AT_EPOCH": 61304, "BSTAR": 0.0001151, "MEAN_MOTION_DOT": 8.3e-06, "MEAN_MOTION_DDOT": 0}, "tle": {"line1": "1 40118U 14049A   25356.20257872  .00000830  00000+0  11510-3 0  9997", "line2": "2 40118  98.0376  55.3876 0008763  87.0991 273.1224 14.80624285613046"}}, "geometry": {"type": "Point", "coordinates": [-126.2562172954789, -12.635996988303896]}}, {"type": "Feature", "properties": {"norad_id": 40143, "name": "YAOGAN-21", "group": "resource", "lat": -28.07869952648172, "lon": -144.58476466854236, "alt_km": 506.146679460845, "timestamp": "2025-12-22T08:58:20.000428+00:00", "meta": {"OBJECT_NAME": "YAOGAN-21", "OBJECT_ID": "2014-053A", "EPOCH": "2025-12-22T04:54:32.611104", "MEAN_MOTION": 15.23762383, "ECCENTRICITY": 0.0008789, "INCLINATION": 97.1739, "RA_OF_ASC_NODE": 39.1061, "ARG_OF_PERICENTER": 10.3642, "MEAN_ANOMALY": 349.7775, "EPHEMERIS_TYPE": 0, "CLASSIFICATION_TYPE": "U", "NORAD_CAT_ID": 40143, "ELEMENT_SET_NO": 999, "REV_AT_EPOCH": 62798, "BSTAR": 0.00016903, "MEAN_MOTION_DOT": 4.001e-05, "MEAN_MOTION_DDOT": 0}, "tle": {"line1": "1 40143U 14053A   25356.20454411  .00004001  00000+0  16903-3 0  9993", "line2": "2 40143  97.1739  39.1061 0008789  10.3642 349.7775 15.23762383627982"}}, "geometry": {"type": "Point", "coordinates": [-144.58476466854236, -28.07869952648172]}}, {"type": "Feature", "properties": {"norad_id": 40275, "name": "YAOGAN-22", "group": "resource", "lat": 33.78636580573953, "lon": 132.63201401033172, "alt_km": 1204.0159655877196, "timestamp": "2025-12-22T08:58:20.000438+00:00", "meta": {"OBJECT_NAME": "YAOGAN-22", "OBJECT_ID": "2014-063A", "EPOCH": "2025-12-21T20:01:14.576736", "MEAN_MOTION": 13.15522949, "ECCENTRICITY": 0.0006043, "INCLINATION": 100.7428, "RA_OF_ASC_NODE": 139.3823, "ARG_OF_PERICENTER": 226.3916, "MEAN_ANOMALY": 133.6694, "EPHEMERIS_TYPE": 0, "CLASSIFICATION_TYPE": "U", "NORAD_CAT_ID": 40275, "ELEMENT_SET_NO": 999, "REV_AT_EPOCH": 53649, "BSTAR": 7.0189e-05, "MEAN_MOTION_DOT": -2e-07, "MEAN_MOTION_DDOT": 0}, "tle": {"line1": "1 40275U 14063A   25355.83419649 -.00000020  00000+0  70189-4 0  9997", "line2": "2 40275 100.7428 139.3823 0006043 226.3916 133.6694 13.15522949536493"}}, "geometry": {"type": "Point", "coordinates": [132.63201401033172, 33.78636580573953]}}, {"type": "Feature", "properties": {"norad_id": 40298, "name": "ASNARO", "group": "resource", "lat": 65.71628445840916, "lon": -91.25493223270536, "alt_km": 496.6299284200404, "timestamp": "2025-12-22T08:58:20.000449+00:00", "meta": {"OBJECT_NAME": "ASNARO", "OBJECT_ID": "2014-070A", "EPOCH": "2025-12-22T05:18:56.945952", "MEAN_MOTION": 15.196793, "ECCENTRICITY": 0.0005723, "INCLINATION": 97.3649, "RA_OF_ASC_NODE": 71.9369, "ARG_OF_PERICENTER": 97.4899, "MEAN_ANOMALY": 262.6986, "EPHEMERIS_TYPE": 0, "CLASSIFICATION_TYPE": "U", "NORAD_CAT_ID": 40298, "ELEMENT_SET_NO": 999, "REV_AT_EPOCH": 61713, "BSTAR": 0.00066417, "MEAN_MOTION_DOT": 0.00014127, "MEAN_MOTION_DDOT": 0}, "tle": {"line1": "1 40298U 14070A   25356.22149243  .00014127  00000+0  66417-3 0  9994", "line2": "2 40298  97.3649  71.9369 0005723  97.4899 262.6986 15.19679300617139"}}, "geometry": {"type": "Point", "coordinates": [-91.25493223270536, 65.71628445840916]}}, {"type": "Feature", "properties": {"norad_id": 40310, "name": "YAOGAN-24", "group": "resource", "lat": 22.364353206410527, "lon": 124.14976126638284, "alt_km": 640.3862734922423, "timestamp": "2025-12-22T08:58:20.000459+00:00", "meta": {"OBJECT_NAME": "YAOGAN-24", "OBJECT_ID": "2014-072A", "EPOCH": "2025-12-22T05:36:59.505120", "MEAN_MOTION": 14.76193426, "ECCENTRICITY": 0.001515, "INCLINATION": 98.1229, "RA_OF_ASC_NODE": 127.3781, "ARG_OF_PERICENTER": 109.5341, "MEAN_ANOMALY": 250.7505, "EPHEMERIS_TYPE": 0, "CLASSIFICATION_TYPE": "U", "NORAD_CAT_ID": 40310, "ELEMENT_SET_NO": 999, "REV_AT_EPOCH": 59761, "BSTAR": 4.9706e-05, "MEAN_MOTION_DOT": 2.91e-06, "MEAN_MOTION_DDOT": 0}, "tle": {"line1": "1 40310U 14072A   25356.23402205  .00000291  00000+0  49706-4 0  9992", "line2": "2 40310  98.1229 127.3781 0015150 109.5341 250.7505 14.76193426597610"}}, "geometry": {"type": "Point", "coordinates": [124.14976126638284, 22.364353206410527]}}, {"type": "Feature", "properties": {"norad_id": 40336, "name": "CBERS 4", "group": "resource", "lat": 24.556383210478224, "lon": -122.1005846349602, "alt_km": 771.8547934441331, "timestamp": "2025-12-22T08:58:20.000469+00:00", "meta": {"OBJECT_NAME": "CBERS 4", "OBJECT_ID": "2014-079A", "EPOCH": "2025-12-22T04:54:24.303744", "MEAN_MOTION": 14.35521097, "ECCENTRICITY": 0.0001844, "INCLINATION": 98.3299, "RA_OF_ASC_NODE": 53.8974, "ARG_OF_PERICENTER": 102.2413, "MEAN_ANOMALY": 257.898, "EPHEMERIS_TYPE": 0, "CLASSIFICATION_TYPE": "U", "NORAD_CAT_ID": 40336, "ELEMENT_SET_NO": 999, "REV_AT_EPOCH": 57856, "BSTAR": 6.1433e-05, "MEAN_MOTION_DOT": 1.35e-06, "MEAN_MOTION_DDOT": 0}, "tle": {"line1": "1 40336U 14079A   25356.20444796  .00000135  00000+0  61433-4 0  9993", "line2": "2 40336  98.3299  53.8974 0001844 102.2413 257.8980 14.35521097578561"}}, "geometry": {"type": "Point", "coordinates": [-122.1005846349602, 24.556383210478224]}}, {"type": "Feature", "properties": {"norad_id": 40362, "name": "YAOGAN-26", "group": "resource", "lat": 70.60513824016724, "lon": -162.67207780426196, "alt_km": 441.46668623337337, "timestamp": "2025-12-22T08:58:20.000479+00:00", "meta": {"OBJECT_NAME": "YAOGAN-26", "OBJECT_ID": "2014-088A", "EPOCH": "2025-12-22T03:49:30.601344", "MEAN_MOTION": 15.39609725, "ECCENTRICITY": 0.0004937, "INCLINATION": 97.0633, "RA_OF_ASC_NODE": 356.499, "ARG_OF_PERICENTER": 1.1325, "MEAN_ANOMALY": 358.9932, "EPHEMERIS_TYPE": 0, "CLASSIFICATION_TYPE": "U", "NORAD_CAT_ID": 40362, "ELEMENT_SET_NO": 999, "REV_AT_EPOCH": 61039, "BSTAR": 0.00051546, "MEAN_MOTION_DOT": 0.00020261, "MEAN_MOTION_DDOT": 0}, "tle": {"line1": "1 40362U 14088A   25356.15938196  .00020261  00000+0  51546-3 0  9993", "line2": "2 40362  97.0633 356.4990 0004937   1.1325 358.9932 15.39609725610391"}}, "geometry": {"type": "Point", "coordinates": [-162.67207780426196, 70.60513824016724]}}, {"type": "Feature", "properties": {"norad_id": 40376, "name": "SMAP", "group": "resource", "lat": -60.662707627324984, "lon": 166.22620499615644, "alt_km": 690.2643285146705, "timestamp": "2025-12-22T08:58:20.000490+00:00", "meta": {"OBJECT_NAME": "SMAP", "OBJECT_ID": "2015-003A", "EPOCH": "2025-12-22T02:56:53.400192", "MEAN_MOTION": 14.63356263, "ECCENTRICITY": 0.0001228, "INCLINATION": 98.1288, "RA_OF_ASC_NODE": 0.7114, "ARG_OF_PERICENTER": 91.5879, "MEAN_ANOMALY": 268.5464, "EPHEMERIS_TYPE": 0, "CLASSIFICATION_TYPE": "U", "NORAD_CAT_ID": 40376, "ELEMENT_SET_NO": 999, "REV_AT_EPOCH": 58172, "BSTAR": 0.00010446, "MEAN_MOTION_DOT": 4.93e-06, "MEAN_MOTION_DDOT": 0}, "tle": {"line1": "1 40376U 15003A   25356.12284028  .00000493  00000+0  10446-3 0  9990", "line2": "2 40376  98.1288   0.7114 0001228  91.5879 268.5464 14.63356263581720"}}, "geometry": {"type": "Point", "coordinates": [166.22620499615644, -60.662707627324984]}}, {"type": "Feature", "properties": {"norad_id": 40536, "name": "KOMPSAT-3A", "group": "resource", "lat": -29.97913697733069, "lon": 146.78992725425977, "alt_km": 440.506803552812, "timestamp": "2025-12-22T08:58:20.000500+00:00", "meta": {"OBJECT_NAME": "KOMPSAT-3A", "OBJECT_ID": "2015-014A", "EPOCH": "2025-12-22T04:57:18.507744", "MEAN_MOTION": 15.44271182, "ECCENTRICITY": 0.0005539, "INCLINATION": 97.6798, "RA_OF_ASC_NODE": 331.0778, "ARG_OF_PERICENTER": 106.0221, "MEAN_ANOMALY": 254.1637, "EPHEMERIS_TYPE": 0, "CLASSIFICATION_TYPE": "U", "NORAD_CAT_ID": 40536, "ELEMENT_SET_NO": 999, "REV_AT_EPOCH": 59441, "BSTAR": 0.00044821, "MEAN_MOTION_DOT": 0.0002056, "MEAN_MOTION_DDOT": 0}, "tle": {"line1": "1 40536U 15014A   25356.20646421  .00020560  00000+0  44821-3 0  9999", "line2": "2 40536  97.6798 331.0778 0005539 106.0221 254.1637 15.44271182594415"}}, "geometry": {"type": "Point", "coordinates": [146.78992725425977, -29.97913697733069]}}, {"type": "Feature", "properties": {"norad_id": 40697, "name": "SENTINEL-2A", "group": "resource", "lat": 62.0209761967476, "lon": 52.27272691844528, "alt_km": 782.2752159791517, "timestamp": "2025-12-22T08:58:20.000510+00:00", "meta": {"OBJECT_NAME": "SENTINEL-2A", "OBJECT_ID": "2015-028A", "EPOCH": "2025-12-22T05:19:15.464928", "MEAN_MOTION": 14.30808532, "ECCENTRICITY": 0.0001066, "INCLINATION": 98.574, "RA_OF_ASC_NODE": 68.6214, "ARG_OF_PERICENTER": 89.4574, "MEAN_ANOMALY": 270.6731, "EPHEMERIS_TYPE": 0, "CLASSIFICATION_TYPE": "U", "NORAD_CAT_ID": 40697, "ELEMENT_SET_NO": 999, "REV_AT_EPOCH": 54842, "BSTAR": 1.0065e-05, "MEAN_MOTION_DOT": -1.7e-07, "MEAN_MOTION_DDOT": 0}, "tle": {"line1": "1 40697U 15028A   25356.22170677 -.00000017  00000+0  10065-4 0  9999", "line2": "2 40697  98.5740  68.6214 0001066  89.4574 270.6731 14.30808532548421"}}, "geometry": {"type": "Point", "coordinates": [52.27272691844528, 62.0209761967476]}}]}